[{"OBJECT_NAME":"DUPLEX","OBJECT_ID":"1998-067XS","EPOCH":"2026-03-20T05:50:42.444384","MEAN_MOTION":15.56853092,"ECCENTRICITY":0.00029779,"INCLINATION":51.6306,"RA_OF_ASC_NODE":16.6351,"ARG_OF_PERICENTER":156.4039,"MEAN_ANOMALY":203.709,"EPHEMERIS_TYPE":0,"CLASSIFICATION_TYPE":"U","NORAD_CAT_ID":66906,"ELEMENT_SET_NO":999,"REV_AT_EPOCH":1677,"BSTAR":0.00030375098,"MEAN_MOTION_DOT":0.000218,"MEAN_MOTION_DDOT":0},{"OBJECT_NAME":"ISS OBJECT XT","OBJECT_ID":"1998-067XT","EPOCH":"2026-03-20T04:56:04.147584","MEAN_MOTION":15.72675756,"ECCENTRICITY":0.00052474,"INCLINATION":51.626,"RA_OF_ASC_NODE":11.8555,"ARG_OF_PERICENTER":148.637,"MEAN_ANOMALY":211.4942,"EPHEMERIS_TYPE":0,"CLASSIFICATION_TYPE":"U","NORAD_CAT_ID":66907,"ELEMENT_SET_NO":999,"REV_AT_EPOCH":1683,"BSTAR":0.0009694761,"MEAN_MOTION_DOT":0.001349,"MEAN_MOTION_DDOT":0},{"OBJECT_NAME":"ISS OBJECT XU","OBJECT_ID":"1998-067XU","EPOCH":"2026-03-20T04:52:09.475680","MEAN_MOTION":15.72809442,"ECCENTRICITY":0.0005459,"INCLINATION":51.6253,"RA_OF_ASC_NODE":11.8334,"ARG_OF_PERICENTER":148.392,"MEAN_ANOMALY":211.7407,"EPHEMERIS_TYPE":0,"CLASSIFICATION_TYPE":"U","NORAD_CAT_ID":66908,"ELEMENT_SET_NO":999,"REV_AT_EPOCH":1683,"BSTAR":0.00094883199,"MEAN_MOTION_DOT":0.00132745,"MEAN_MOTION_DDOT":0},{"OBJECT_NAME":"SILVERSAT","OBJECT_ID":"1998-067XV","EPOCH":"2026-03-20T04:21:22.683456","MEAN_MOTION":15.76718316,"ECCENTRICITY":0.00058723,"INCLINATION":51.6236,"RA_OF_ASC_NODE":10.9348,"ARG_OF_PERICENTER":151.9613,"MEAN_ANOMALY":208.1704,"EPHEMERIS_TYPE":0,"CLASSIFICATION_TYPE":"U","NORAD_CAT_ID":66909,"ELEMENT_SET_NO":999,"REV_AT_EPOCH":1684,"BSTAR":0.0010695302,"MEAN_MOTION_DOT":0.00178475,"MEAN_MOTION_DDOT":0},{"OBJECT_NAME":"ISS OBJECT XW","OBJECT_ID":"1998-067XW","EPOCH":"2026-03-20T04:56:42.861696","MEAN_MOTION":15.71670531,"ECCENTRICITY":0.00058073,"INCLINATION":51.6255,"RA_OF_ASC_NODE":11.8505,"ARG_OF_PERICENTER":150.0745,"MEAN_ANOMALY":210.0586,"EPHEMERIS_TYPE":0,"CLASSIFICATION_TYPE":"U","NORAD_CAT_ID":66910,"ELEMENT_SET_NO":999,"REV_AT_EPOCH":1683,"BSTAR":0.00089058785,"MEAN_MOTION_DOT":0.00118472,"MEAN_MOTION_DDOT":0},{"OBJECT_NAME":"ISS OBJECT XX","OBJECT_ID":"1998-067XX","EPOCH":"2026-03-20T00:38:23.056800","MEAN_MOTION":15.81175637,"ECCENTRICITY":0.00075405,"INCLINATION":51.6213,"RA_OF_ASC_NODE":10.624,"ARG_OF_PERICENTER":154.6748,"MEAN_ANOMALY":205.4625,"EPHEMERIS_TYPE":0,"CLASSIFICATION_TYPE":"U","NORAD_CAT_ID":66911,"ELEMENT_SET_NO":999,"REV_AT_EPOCH":1682,"BSTAR":0.0012858182,"MEAN_MOTION_DOT":0.00265567,"MEAN_MOTION_DDOT":0},{"OBJECT_NAME":"ISS OBJECT XY","OBJECT_ID":"1998-067XY","EPOCH":"2026-03-20T04:24:03.870432","MEAN_MOTION":15.65652756,"ECCENTRICITY":0.00038345,"INCLINATION":51.6283,"RA_OF_ASC_NODE":13.9735,"ARG_OF_PERICENTER":151.9435,"MEAN_ANOMALY":208.1768,"EPHEMERIS_TYPE":0,"CLASSIFICATION_TYPE":"U","NORAD_CAT_ID":66912,"ELEMENT_SET_NO":999,"REV_AT_EPOCH":1679,"BSTAR":0.00068564431,"MEAN_MOTION_DOT":0.0007058,"MEAN_MOTION_DDOT":0},{"OBJECT_NAME":"KNACKSAT-2","OBJECT_ID":"1998-067XZ","EPOCH":"2026-03-20T05:18:46.861344","MEAN_MOTION":15.52646122,"ECCENTRICITY":0.00096943,"INCLINATION":51.6326,"RA_OF_ASC_NODE":19.4857,"ARG_OF_PERICENTER":223.4143,"MEAN_ANOMALY":136.6084,"EPHEMERIS_TYPE":0,"CLASSIFICATION_TYPE":"U","NORAD_CAT_ID":67683,"ELEMENT_SET_NO":999,"REV_AT_EPOCH":642,"BSTAR":0.00045951319,"MEAN_MOTION_DOT":0.00028505,"MEAN_MOTION_DDOT":0},{"OBJECT_NAME":"CORAL","OBJECT_ID":"1998-067YA","EPOCH":"2026-03-20T05:43:23.005344","MEAN_MOTION":15.55968605,"ECCENTRICITY":0.0012105,"INCLINATION":51.6315,"RA_OF_ASC_NODE":18.8493,"ARG_OF_PERICENTER":212.7395,"MEAN_ANOMALY":147.2847,"EPHEMERIS_TYPE":0,"CLASSIFICATION_TYPE":"U","NORAD_CAT_ID":67684,"ELEMENT_SET_NO":999,"REV_AT_EPOCH":643,"BSTAR":0.00082989732,"MEAN_MOTION_DOT":0.000589,"MEAN_MOTION_DDOT":0},{"OBJECT_NAME":"GXIBA-1","OBJECT_ID":"1998-067YB","EPOCH":"2026-03-20T05:08:22.437312","MEAN_MOTION":15.5309958,"ECCENTRICITY":0.0011616,"INCLINATION":51.6332,"RA_OF_ASC_NODE":19.4363,"ARG_OF_PERICENTER":220.6848,"MEAN_ANOMALY":139.3275,"EPHEMERIS_TYPE":0,"CLASSIFICATION_TYPE":"U","NORAD_CAT_ID":67685,"ELEMENT_SET_NO":999,"REV_AT_EPOCH":642,"BSTAR":0.00048660921,"MEAN_MOTION_DOT":0.00030754,"MEAN_MOTION_DDOT":0},{"OBJECT_NAME":"UITMSAT-2","OBJECT_ID":"1998-067YC","EPOCH":"2026-03-20T04:54:06.523488","MEAN_MOTION":15.53839493,"ECCENTRICITY":0.00085039,"INCLINATION":51.6331,"RA_OF_ASC_NODE":19.3725,"ARG_OF_PERICENTER":189.8163,"MEAN_ANOMALY":170.2663,"EPHEMERIS_TYPE":0,"CLASSIFICATION_TYPE":"U","NORAD_CAT_ID":67686,"ELEMENT_SET_NO":999,"REV_AT_EPOCH":642,"BSTAR":0.00056833207,"MEAN_MOTION_DOT":0.00036971,"MEAN_MOTION_DDOT":0},{"OBJECT_NAME":"HMU-SAT2","OBJECT_ID":"1998-067YD","EPOCH":"2026-03-20T05:13:29.495136","MEAN_MOTION":15.52859618,"ECCENTRICITY":0.00081828,"INCLINATION":51.6329,"RA_OF_ASC_NODE":19.4634,"ARG_OF_PERICENTER":193.2145,"MEAN_ANOMALY":166.8632,"EPHEMERIS_TYPE":0,"CLASSIFICATION_TYPE":"U","NORAD_CAT_ID":67687,"ELEMENT_SET_NO":999,"REV_AT_EPOCH":634,"BSTAR":0.00047481355,"MEAN_MOTION_DOT":0.0002969,"MEAN_MOTION_DDOT":0},{"OBJECT_NAME":"LEOPARD","OBJECT_ID":"1998-067YE","EPOCH":"2026-03-20T05:00:37.027296","MEAN_MOTION":15.5350034,"ECCENTRICITY":0.00083515,"INCLINATION":51.6333,"RA_OF_ASC_NODE":19.4024,"ARG_OF_PERICENTER":190.6023,"MEAN_ANOMALY":169.4793,"EPHEMERIS_TYPE":0,"CLASSIFICATION_TYPE":"U","NORAD_CAT_ID":67688,"ELEMENT_SET_NO":999,"REV_AT_EPOCH":634,"BSTAR":0.00052397408,"MEAN_MOTION_DOT":0.0003361,"MEAN_MOTION_DDOT":0},{"OBJECT_NAME":"CREW DRAGON 12","OBJECT_ID":"2026-031A","EPOCH":"2026-03-20T03:53:37.593024","MEAN_MOTION":15.48388697,"ECCENTRICITY":0.00062344,"INCLINATION":51.6345,"RA_OF_ASC_NODE":20.5881,"ARG_OF_PERICENTER":211.0869,"MEAN_ANOMALY":148.9751,"EPHEMERIS_TYPE":0,"CLASSIFICATION_TYPE":"U","NORAD_CAT_ID":67796,"ELEMENT_SET_NO":999,"REV_AT_EPOCH":55787,"BSTAR":0.00016519966,"MEAN_MOTION_DOT":8.474e-5,"MEAN_MOTION_DDOT":0}]
